NORAD_CAT_ID,OBJECT_NAME,OBJECT_TYPE,EPOCH,MEAN_MOTION,ECCENTRICITY,INCLINATION,RA_OF_ASC_NODE,ARG_OF_PERICENTER,MEAN_ANOMALY,BSTAR,MEAN_MOTION_DOT,MEAN_MOTION_DDOT,TLE_LINE0,TLE_LINE1,TLE_LINE2,SEMIMAJOR_AXIS,PERIOD,APOGEE,PERIGEE,DECAYED
51146.0,STARLINK-3354,PAYLOAD,2024-07-16 23:34:55,15.08844096,0.0001721,53.2172,115.807,104.8093,255.309,7.225e-05,8.62e-06,0.0,0 STARLINK-3354,1 51146U 22005AU  24198.98258637  .00000862  00000-0  72250-4 0  9994,2 51146  53.2172 115.8070 0001721 104.8093 255.3090 15.08844096139166,6917.868,95.437,540.923,538.542,0.0
51146.0,STARLINK-3354,PAYLOAD,2024-07-17 21:50:20,15.08834103,0.0001263,53.2139,111.6408,109.6926,250.4202,-2.3829e-05,-6.67e-06,0.0,0 STARLINK-3354,1 51146U 22005AU  24199.90995672 -.00000667  00000-0 -23829-4 0  9997,2 51146  53.2139 111.6408 0001263 109.6926 250.4202 15.08834103138187,6917.898,95.438,540.637,538.89,0.0
51146.0,STARLINK-3354,PAYLOAD,2024-07-18 01:01:06,15.0883667,0.0001375,53.2157,111.0466,99.9184,260.1964,-1.1351e-05,-4.69e-06,0.0,0 STARLINK-3354,1 51146U 22005AU  24200.04243595 -.00000469  00000-0 -11351-4 0  9992,2 51146  53.2157 111.0466 0001375  99.9184 260.1964 15.08836670139327,6917.891,95.438,540.707,538.804,0.0
51146.0,STARLINK-3354,PAYLOAD,2024-07-18 10:33:25,15.08838885,0.0001479,53.2154,109.2655,88.129,271.9871,2.0454e-05,3.8e-07,0.0,0 STARLINK-3354,1 51146U 22005AU  24200.43987551  .00000038  00000-0  20454-4 0  9996,2 51146  53.2154 109.2655 0001479  88.1290 271.9871 15.08838885138265,6917.884,95.438,540.772,538.726,0.0
51146.0,STARLINK-3354,PAYLOAD,2024-07-18 21:41:07,15.08833612,0.0001473,53.217,107.1903,95.3779,264.7382,-2.5555e-05,-6.95e-06,0.0,0 STARLINK-3354,1 51146U 22005AU  24200.90356288 -.00000695  00000-0 -25555-4 0  9993,2 51146  53.2170 107.1903 0001473  95.3779 264.7382 15.08833612138330,6917.9,95.438,540.784,538.746,0.0
51146.0,STARLINK-3354,PAYLOAD,2024-07-19 10:24:12,15.08845151,0.0001534,53.2166,104.8155,115.3251,244.7901,-2.6679e-05,-7.13e-06,0.0,0 STARLINK-3354,1 51146U 22005AU  24201.43347577 -.00000713  00000-0 -26679-4 0  9992,2 51146  53.2166 104.8155 0001534 115.3251 244.7901 15.08845151139533,6917.865,95.437,540.791,538.668,0.0
51146.0,STARLINK-3354,PAYLOAD,2024-07-19 21:31:55,15.08830902,0.00015,53.2177,102.7351,117.9753,242.1391,4.4609e-05,4.22e-06,0.0,0 STARLINK-3354,1 51146U 22005AU  24201.89716611  .00000422  00000-0  44609-4 0  9999,2 51146  53.2177 102.7351 0001500 117.9753 242.1391 15.08830902139609,6917.908,95.438,540.811,538.736,0.0
51146.0,STARLINK-3354,PAYLOAD,2024-07-20 02:18:03,15.08841244,0.0001275,53.2172,101.8357,94.2607,265.8531,0.00014086,1.955e-05,0.0,0 STARLINK-3354,1 51146U 22005AU  24202.09587746  .00001955  00000-0  14086-3 0  9994,2 51146  53.2172 101.8357 0001275  94.2607 265.8531 15.08841244139636,6917.877,95.437,540.624,538.86,0.0
51146.0,STARLINK-3354,PAYLOAD,2024-07-20 10:15:00,15.08835255,0.0001315,53.2165,100.3477,84.0426,276.0716,5.7841e-05,6.33e-06,0.0,0 STARLINK-3354,1 51146U 22005AU  24202.42708495  .00000633  00000-0  57841-4 0  9996,2 51146  53.2165 100.3477 0001315  84.0426 276.0716 15.08835255139685,6917.895,95.438,540.67,538.85,0.0
51146.0,STARLINK-3354,PAYLOAD,2024-07-20 21:22:42,15.08831154,0.0001069,53.2162,98.2654,86.035,274.0764,7.621e-05,9.25e-06,0.0,0 STARLINK-3354,1 51146U 22005AU  24202.89076905  .00000925  00000-0  76210-4 0  9996,2 51146  53.2162  98.2654 0001069  86.0350 274.0764 15.08831154138637,6917.907,95.438,540.512,539.033,0.0
51146.0,STARLINK-3354,PAYLOAD,2024-07-21 00:33:27,15.08851929,0.0001146,53.2163,97.6744,111.7809,248.3305,0.00014,1.942e-05,0.0,0 STARLINK-3354,1 51146U 22005AU  24203.02323389  .00001942  00000-0  14000-3 0  9991,2 51146  53.2163  97.6744 0001146 111.7809 248.3305 15.08851929139775,6917.844,95.437,540.502,538.916,0.0
51146.0,STARLINK-3354,PAYLOAD,2024-07-21 21:13:29,15.08835774,0.0001732,53.2163,93.8047,56.5984,303.5174,0.00011854,1.599e-05,0.0,0 STARLINK-3354,1 51146U 22005AU  24203.88436800  .00001599  00000-0  11854-3 0  9990,2 51146  53.2163  93.8047 0001732  56.5984 303.5174 15.08835774139903,6917.893,95.438,540.956,538.56,0.0
51146.0,STARLINK-3354,PAYLOAD,2024-07-22 00:24:15,15.08847956,0.0001641,53.2168,93.2109,63.4263,296.6897,4.0282e-05,3.53e-06,0.0,0 STARLINK-3354,1 51146U 22005AU  24204.01684270  .00000353  00000-0  40282-4 0  9997,2 51146  53.2168  93.2109 0001641  63.4263 296.6897 15.08847956139928,6917.856,95.437,540.856,538.586,0.0
51146.0,STARLINK-3354,PAYLOAD,2024-07-22 22:39:39,15.08846649,0.0001474,53.2172,89.0454,75.9277,284.1879,-2.0812e-05,-6.19e-06,0.0,0 STARLINK-3354,1 51146U 22005AU  24204.94420366 -.00000619  00000-0 -20812-4 0  9997,2 51146  53.2172  89.0454 0001474  75.9277 284.1879 15.08846649138947,6917.86,95.437,540.745,538.705,0.0
51146.0,STARLINK-3354,PAYLOAD,2024-07-23 01:50:24,15.0884885,0.0001397,53.2182,88.4417,80.2048,279.9102,2.592e-05,1.25e-06,0.0,0 STARLINK-3354,1 51146U 22005AU  24205.07667777  .00000125  00000-0  25920-4 0  9996,2 51146  53.2182  88.4417 0001397  80.2048 279.9102 15.08848850140084,6917.853,95.437,540.685,538.752,0.0
51146.0,STARLINK-3354,PAYLOAD,2024-07-23 09:47:21,15.08840702,0.0001127,53.2161,86.9651,76.5843,283.5275,-3.9233e-07,-2.94e-06,0.0,0 STARLINK-3354,1 51146U 22005AU  24205.40788361 -.00000294  00000-0 -39233-6 0  9999,2 51146  53.2161  86.9651 0001127  76.5843 283.5275 15.08840702140132,6917.878,95.438,540.523,538.964,0.0
51146.0,STARLINK-3354,PAYLOAD,2024-07-23 22:30:26,15.08838262,0.0001396,53.2176,84.5854,93.7151,266.4,-3.5856e-05,-8.59e-06,0.0,0 STARLINK-3354,1 51146U 22005AU  24205.93780749 -.00000859  00000-0 -35856-4 0  9991,2 51146  53.2176  84.5854 0001396  93.7151 266.4000 15.08838262139095,6917.886,95.438,540.716,538.785,0.0
51146.0,STARLINK-3354,PAYLOAD,2024-07-24 22:21:12,15.08853894,0.000147,53.2176,80.1209,140.1595,219.9505,-9.2646e-05,-1.763e-05,0.0,0 STARLINK-3354,1 51146U 22005AU  24206.93139652 -.00001763  00000-0 -92646-4 0  9998,2 51146  53.2176  80.1209 0001470 140.1595 219.9505 15.08853894139241,6917.838,95.437,540.72,538.686,0.0
51146.0,STARLINK-3354,PAYLOAD,2024-07-25 01:31:59,15.08805464,0.0001862,53.2179,79.5272,139.7734,220.3396,0.00054976,8.464e-05,0.0,0 STARLINK-3354,1 51146U 22005AU  24207.06388443  .00008464  00000-0  54976-3 0  9993,2 51146  53.2179  79.5272 0001862 139.7734 220.3396 15.08805464140381,6917.986,95.44,541.139,538.563,0.0
51146.0,STARLINK-3354,PAYLOAD,2024-07-25 22:12:00,15.08835027,0.000119,53.217,75.6689,86.9352,273.1777,-1.6243e-05,-5.46e-06,0.0,0 STARLINK-3354,1 51146U 22005AU  24207.92500894 -.00000546  00000-0 -16243-4 0  9995,2 51146  53.2170  75.6689 0001190  86.9352 273.1777 15.08835027139390,6917.896,95.438,540.584,538.937,0.0
51146.0,STARLINK-3354,PAYLOAD,2024-07-26 14:05:52,15.08833391,0.0001036,53.2163,72.6886,83.2941,276.8169,8.369e-06,-1.55e-06,0.0,0 STARLINK-3354,1 51146U 22005AU  24208.58741042 -.00000155  00000-0  83690-5 0  9996,2 51146  53.2163  72.6886 0001036  83.2941 276.8169 15.08833391139499,6917.901,95.438,540.482,539.049,0.0
51146.0,STARLINK-3354,PAYLOAD,2024-07-26 15:41:15,15.08856801,0.0001212,53.2174,72.3951,104.9267,255.1859,-0.00021042,-3.637e-05,0.0,0 STARLINK-3354,1 51146U 22005AU  24208.65364794 -.00003637  00000-0 -21042-3 0  9999,2 51146  53.2174  72.3951 0001212 104.9267 255.1859 15.08856801140623,6917.829,95.436,540.532,538.856,0.0
51146.0,STARLINK-3354,PAYLOAD,2024-07-26 22:02:47,15.08858564,0.0001141,53.217,71.2063,104.3761,255.7358,-0.00011393,-2.102e-05,0.0,0 STARLINK-3354,1 51146U 22005AU  24208.91860004 -.00002102  00000-0 -11393-3 0  9997,2 51146  53.2170  71.2063 0001141 104.3761 255.7358 15.08858564139542,6917.824,95.436,540.478,538.899,0.0
51146.0,STARLINK-3354,PAYLOAD,2024-07-27 21:53:35,15.0883065,0.0001207,53.2175,66.7468,102.2974,257.8154,-1.2397e-05,-4.85e-06,0.0,0 STARLINK-3354,1 51146U 22005AU  24209.91221601 -.00000485  00000-0 -12397-4 0  9990,2 51146  53.2175  66.7468 0001207 102.2974 257.8154 15.08830650139690,6917.909,95.438,540.609,538.939,0.0
51146.0,STARLINK-3354,PAYLOAD,2024-07-28 01:04:21,15.08837862,0.0001215,53.2164,66.1546,108.9319,251.1805,2.6006e-05,1.26e-06,0.0,0 STARLINK-3354,1 51146U 22005AU  24210.04469112  .00000126  00000-0  26006-4 0  9999,2 51146  53.2164  66.1546 0001215 108.9319 251.1805 15.08837862140834,6917.887,95.438,540.592,538.911,0.0
51146.0,STARLINK-3354,PAYLOAD,2024-07-28 20:08:58,15.08876851,0.0001577,53.2167,62.584,98.7641,261.3529,-0.00049087,-8.1e-05,0.0,0 STARLINK-3354,1 51146U 22005AU  24210.83956581 -.00008100  00000-0 -49087-3 0  9992,2 51146  53.2167  62.5840 0001577  98.7641 261.3529 15.08876851140959,6917.768,95.435,540.724,538.542,0.0
51146.0,STARLINK-3354,PAYLOAD,2024-07-28 21:44:22,15.08840939,0.0001282,53.2178,62.2853,79.5699,280.5437,1.5036e-05,-4.9e-07,0.0,0 STARLINK-3354,1 51146U 22005AU  24210.90581246 -.00000049  00000-0  15036-4 0  9993,2 51146  53.2178  62.2853 0001282  79.5699 280.5437 15.08840939139840,6917.878,95.437,540.629,538.856,0.0
51146.0,STARLINK-3354,PAYLOAD,2024-07-29 07:16:41,15.08819654,0.0001281,53.2171,60.5018,78.6515,281.4621,0.00038125,5.782e-05,0.0,0 STARLINK-3354,1 51146U 22005AU  24211.30325636  .00005782  00000-0  38125-3 0  9998,2 51146  53.2171  60.5018 0001281  78.6515 281.4621 15.08819654141021,6917.943,95.439,540.694,538.921,0.0
51146.0,STARLINK-3354,PAYLOAD,2024-07-29 19:59:45,15.08846533,0.0001178,53.2163,58.1224,89.0079,271.1048,8.1797e-05,1.014e-05,0.0,0 STARLINK-3354,1 51146U 22005AU  24211.83316690  .00001014  00000-0  81797-4 0  9994,2 51146  53.2163  58.1224 0001178  89.0079 271.1048 15.08846533141104,6917.86,95.437,540.54,538.91,0.0
51146.0,STARLINK-3354,PAYLOAD,2024-07-29 21:35:08,15.08848573,0.0001225,53.2167,57.8253,86.8949,273.2183,0.00011317,1.514e-05,0.0,0 STARLINK-3354,1 51146U 22005AU  24211.89940459  .00001514  00000-0  11317-3 0  9991,2 51146  53.2167  57.8253 0001225  86.8949 273.2183 15.08848573139993,6917.854,95.437,540.567,538.872,0.0
